GLOBALSTAR M057         
1 25943U 99058A   25342.99587995 -.00000036  00000+0  51381-3 0  9991
2 25943  51.9965 212.0953 0003152  28.7219 331.3804 12.24831391188353
GLOBALSTAR M059         
1 25944U 99058B   25342.58627257 -.00000077  00000+0  11957-3 0  9993
2 25944  52.0019  95.3609 0000649 114.2047 258.8397 11.99988182594986
GLOBALSTAR M056         
1 25945U 99058C   25342.75618319 -.00000134  00000+0 -54729-3 0  9991
2 25945  51.9968  92.3865 0001584 147.7523  18.7868 12.04781448183666
GLOBALSTAR M031         
1 25946U 99058D   25343.16449808 -.00000143  00000+0 -53716-3 0  9998
2 25946  51.9980 333.1207 0001189 168.6523 272.3812 12.16044171185836
GLOBALSTAR M039         
1 25961U 99062A   25342.67737966 -.00000077  00000+0  14991-3 0  9997
2 25961  51.9845  97.2455 0002581  34.4967 325.6066 12.62338729202250
GLOBALSTAR M061         
1 25964U 99062D   25343.12572510 -.00000099  00000+0 -30969-3 0  9991
2 25964  51.9791 103.0013 0004962 293.1473 239.3308 11.76778118141773
